[{"OBJECT_NAME":"MKA-PN 1","OBJECT_ID":"2012-039E","EPOCH":"2026-03-09T22:22:36.240960","MEAN_MOTION":14.25388825,"ECCENTRICITY":0.00124264,"INCLINATION":98.958,"RA_OF_ASC_NODE":183.7893,"ARG_OF_PERICENTER":95.296,"MEAN_ANOMALY":264.9637,"EPHEMERIS_TYPE":0,"CLASSIFICATION_TYPE":"U","NORAD_CAT_ID":38711,"ELEMENT_SET_NO":999,"REV_AT_EPOCH":70870,"BSTAR":0.00011675607,"MEAN_MOTION_DOT":2.29e-6,"MEAN_MOTION_DDOT":0},{"OBJECT_NAME":"SL-16 R\/B","OBJECT_ID":"1988-039B","EPOCH":"2026-03-09T23:31:38.445312","MEAN_MOTION":14.19615449,"ECCENTRICITY":0.00228098,"INCLINATION":71.0134,"RA_OF_ASC_NODE":67.9328,"ARG_OF_PERICENTER":333.9218,"MEAN_ANOMALY":26.0756,"EPHEMERIS_TYPE":0,"CLASSIFICATION_TYPE":"U","NORAD_CAT_ID":19120,"ELEMENT_SET_NO":999,"REV_AT_EPOCH":95842,"BSTAR":-5.864593e-6,"MEAN_MOTION_DOT":-6.1e-7,"MEAN_MOTION_DDOT":0}]
